P/2007 B1 (Christensen),e,12.3835,77.7533,46.8401,5.807159,0.0704301,0.58202370,221.5561,09/07.0/2015,2000,g 13.5,4.0
# From MPC 66700
C/2007 B2 (Skiff),e,27.5920,14.7006,206.0545,556.7727,0.0000750,0.99467922,0.0000,08/22.0513/2008,2000,g  6.0,4.0
# From MPC 75707
P/2007 C2 (Catalina),e,8.7063,275.8266,179.5594,7.022505,0.0529622,0.46367857,154.7468,09/07.0/2015,2000,g 10.0,4.0
# From MPC 84315
C/2007 D1 (LINEAR),e,41.4870,170.9531,340.1518,2375,0.0000085,0.99629598,0.0000,06/17.0567/2007,2000,g  3.5,4.0
# From MPC 66464
C/2007 G1 (LINEAR),e,88.3936,79.0225,223.8822,3738,0.0000043,0.99929166,0.0000,11/13.1492/2008,2000,g  5.5,4.0
# From MPC 82314
P/2007 K2 (Gibbs),e,7.6562,188.6542,347.4642,7.249896,0.0504901,0.68583418,151.9114,09/07.0/2015,2000,g 14.0,4.0
# From MPC 82314
C/2007 K3 (Siding Spring),e,16.3173,263.2561,23.3785,1454,0.0000178,0.99859527,0.0000,04/19.1889/2008,2000,g  9.5,4.0
# From MPC 87475
C/2007 M1 (McNaught),e,139.6709,326.9247,52.6322,1492,0.0000171,0.99499885,0.0000,08/09.6712/2008,2000,g  6.0,4.0
# From MPC 68392
C/2007 M2 (Catalina),e,81.1145,357.2241,220.6431,1163,0.0000249,0.99695418,0.0000,12/08.4781/2008,2000,g  8.0,4.0
# From MPC 73461
C/2007 N3 (Lulin),e,178.3760,338.2676,136.6074,1117,0.0000264,0.99890637,0.0000,01/07.3662/2009,2000,g  6.5,4.0
# From MPC 60925
P/2007 Q2 (Gilmore),e,10.2220,172.2654,163.2157,5.615038,0.0740756,0.66955475,218.2203,09/07.0/2015,2000,g 16.0,4.0
# From MPC 78183
C/2007 Q3 (Siding Spring),h,10/07.7460/2009,65.7381,149.2709,2.1800,1.000247,2.255201,2000,4.5,4.0
# From MPC 75514
P/2007 R1 (Larson),e,7.8688,181.6662,175.4062,6.051195,0.0662129,0.27645097,194.9164,09/07.0/2015,2000,g  8.0,4.0
# From MPC 75708
P/2007 R2 (Gibbs),e,1.4266,8.7430,353.7360,3.462001,0.1530077,0.57441148,91.4931,09/07.0/2015,2000,g 17.0,4.0
# From MPC 82314
P/2007 R3 (Gibbs),e,3.7934,30.0724,312.2257,4.299864,0.1105407,0.41376172,330.8745,09/07.0/2015,2000,g 13.5,4.0
# From MPC 75708
P/2007 R4 (Garradd),e,20.1980,87.3533,283.1589,5.874528,0.0692221,0.66913526,201.3485,09/07.0/2015,2000,g 14.5,4.0
# From MPC 73462
P/2007 S1 (Zhao),e,5.9734,141.5257,245.7307,3.798837,0.1331153,0.34339189,15.9847,09/07.0/2015,2000,g 13.0,4.0
# From MPC 82314
C/2007 S2 (Lemmon),e,16.8751,296.0544,210.5298,12.54855,0.0221725,0.55731757,56.4976,09/07.0/2015,2000,g  6.5,4.0
# From MPC 62270
C/2007 T1 (McNaught),e,117.4380,111.3636,233.6975,1868,0.0000122,0.99948012,0.0000,12/09.1404/2007,2000,g 10.5,4.0
# From MPC 61994
P/2007 T2 (Kowalski),e,9.9317,3.8641,358.5958,3.083336,0.1820425,0.77649729,168.0576,09/07.0/2015,2000,g 18.5,4.0
# From MPC 62879
P/2007 T4 (Gibbs),e,23.8671,37.1053,42.5171,5.240279,0.0821623,0.61850205,243.7193,09/07.0/2015,2000,g 13.0,4.0
# From MPC 65935
C/2007 T5 (Gibbs),e,45.6555,109.7565,34.4716,46.71383,0.0030870,0.91328655,8.2128,09/07.0/2015,2000,g  8.0,4.0
# From MPC 75708
P/2007 T6 (Catalina),e,22.1837,102.5285,335.8809,4.478210,0.1040034,0.50415070,305.1596,09/07.0/2015,2000,g 12.5,4.0
# From MPC 66921
C/2007 U1 (LINEAR),h,08/08.8252/2008,157.7676,50.3589,1.3917,1.001170,3.335994,2000,9.0,4.0
# From MPC 75708
P/2007 V1 (Larson),e,10.7603,7.9537,51.7440,4.971200,0.0889226,0.46254414,251.2395,09/07.0/2015,2000,g 12.0,4.0
# From MPC 75708
P/2007 VQ11 (Catalina),e,12.3246,163.8327,277.8722,5.410548,0.0783145,0.50350843,216.0859,09/07.0/2015,2000,g 12.0,4.0
# From MPC 81468
C/2007 VO53 (Spacewatch),h,04/26.8600/2010,86.9643,59.7136,75.1535,1.001757,4.849706,2000,7.0,4.0
# From MPC 63599
C/2007 W1 (Boattini),e,9.8803,334.8982,306.0877,1144,0.0000255,0.99925995,0.0000,06/22.4738/2008,2000,g  9.5,4.0
# From MPC 63376
C/2007 W3 (LINEAR),e,78.6705,72.9842,112.4065,3222,0.0000054,0.99945400,0.0000,06/04.5471/2008,2000,g 12.0,4.0
# From MPC 62271
C/2007 Y1 (LINEAR),e,110.2279,132.9528,357.1697,4781,0.0000030,0.99929795,0.0000,03/18.1153/2008,2000,g 10.5,4.0
# From MPC 62271
C/2007 Y2 (McNaught),e,98.5897,303.4683,257.7679,985.4808,0.0000319,0.99573052,0.0000,04/10.7455/2008,2000,g  9.0,4.0
# From MPC 65935
C/2008 A1 (McNaught),e,82.5254,277.9564,348.2737,2987,0.0000060,0.99964361,0.0000,09/27.8347/2008,2000,g  6.5,4.0
# From MPC 62582
C/2008 C1 (Chen-Gao),e,61.9683,307.6233,181.0123,5124,0.0000027,0.99975328,0.0000,04/18.0596/2008,2000,g 10.0,4.0
# From MPC 75708
P/2008 CL94 (Lemmon),e,8.3533,33.3676,81.3118,6.148851,0.0646418,0.12133741,216.9253,09/07.0/2015,2000,g  8.0,4.0
# From MPC 64113
C/2008 E1 (Catalina),e,34.8318,188.8351,270.6779,10.81265,0.0277208,0.55109159,71.4857,09/07.0/2015,2000,g  7.0,4.0
# From MPC 68392
C/2008 E3 (Garradd),e,105.0700,105.7406,217.9944,1250,0.0000223,0.99558091,0.0000,07/29.9890/2008,2000,g  6.0,4.0
# From MPC 88324
C/2008 FK75 (Lemmon-Siding Spring),h,09/28.7135/2010,61.2529,218.2699,80.4204,1.000101,4.510571,2000,5.0,4.0
# From MPC 82314
C/2008 G1 (Gibbs),e,73.0086,215.9153,63.6879,272.1287,0.0002196,0.98533122,0.0000,01/10.1041/2009,2000,g  9.5,4.0
# From MPC 63137
C/2008 H1 (LINEAR),e,75.4123,34.4863,95.9579,50.80255,0.0027219,0.94585029,7.4298,09/07.0/2015,2000,g 10.5,4.0
# From MPC 65054
C/2008 J1 (Boattini),e,61.7281,273.4389,68.2122,159.0284,0.0004915,0.98908910,0.0000,07/09.6082/2008,2000,g 10.0,4.0
# From MPC 75709
P/2008 J3 (McNaught),e,25.3505,9.8155,4.6022,3.904276,0.1277595,0.41054142,303.3985,09/07.0/2015,2000,g 12.0,4.0
# From MPC 63376
C/2008 J5 (Garradd),e,93.2873,287.1821,313.0874,68.36737,0.0017435,0.97155170,0.0000,04/01.8712/2008,2000,g 12.0,4.0
# From MPC 82314
C/2008 J6 (Hill),h,04/08.0628/2008,44.9141,298.2834,10.5850,1.000953,2.003450,2000,10.5,4.0
# From MPC 75709
P/2008 L2 (Hill),e,25.8282,218.0208,141.4589,6.020410,0.0667214,0.61184917,172.2419,09/07.0/2015,2000,g 12.5,4.0
# From MPC 68902
C/2008 N1 (Holmes),e,115.3942,357.3514,100.6746,901.8127,0.0000364,0.99691510,0.0000,09/24.2773/2009,2000,g  9.0,4.0
# From MPC 75709
P/2008 O2 (McNaught),e,9.5133,325.8539,27.1704,4.492499,0.1035075,0.15090338,241.9103,09/07.0/2015,2000,g  9.0,4.0
# From MPC 64114
P/2008 O3 (Boattini),e,32.2170,47.6012,341.2816,8.239655,0.0416716,0.69380322,110.6846,09/07.0/2015,2000,g 13.0,4.0
# From MPC 82314
C/2008 P1 (Garradd),e,64.2496,357.8066,11.8684,44169,0.0000001,0.99991166,0.0000,07/21.4336/2009,2000,g  7.0,4.0
# From MPC 65935
C/2008 Q1 (Maticic),e,118.5198,9.1497,104.2581,567.3814,0.0000729,0.99479780,0.0000,12/28.8338/2008,2000,g 10.0,4.0
# From MPC 80896
C/2008 Q3 (Garradd),e,140.7758,219.5762,340.5884,1238,0.0000226,0.99854900,0.0000,06/20.8410/2009,2000,g 10.0,4.0
# From MPC 75709
P/2008 QP20 (LINEAR-Hill),e,7.7418,324.9656,72.3600,3.491450,0.1510759,0.50639214,17.0252,09/07.0/2015,2000,g 15.5,4.0
# From MPC 64115
C/2008 R3 (LINEAR),e,43.2053,270.5769,84.2920,18.32348,0.0125659,0.89503681,31.2057,09/07.0/2015,2000,g 13.0,4.0
# From MPC 95207
C/2008 S3 (Boattini),h,06/10.3594/2011,162.7032,55.0158,40.1613,1.003766,8.016618,2000,4.0,4.0
# From MPC 82717
P/2008 T1 (Boattini),e,2.0790,291.7404,35.8532,4.247981,0.1125720,0.27903418,310.6371,09/07.0/2015,2000,g 11.0,4.0
# From MPC 66921
C/2008 T2 (Cardinal),h,06/14.9098/2009,56.4438,309.6654,215.8232,1.000020,1.197934,2000,6.0,4.0
# From MPC 75710
P/2008 T4 (Hill),e,6.3106,44.6322,1.6400,4.461961,0.1045720,0.43445995,255.8768,09/07.0/2015,2000,g 13.5,4.0
# From MPC 66204
P/2008 WZ96 (LINEAR),e,6.9580,59.0475,337.8333,3.359578,0.1600578,0.50973758,26.4176,09/07.0/2015,2000,g 13.5,4.0
# From MPC 65057
C/2008 X3 (LINEAR),e,66.5062,337.4931,140.9025,43.52534,0.0034323,0.95620209,8.6585,09/07.0/2015,2000,g 13.0,4.0
# From MPC 65935
P/2008 Y1 (Boattini),e,8.9110,259.3417,162.7977,4.802306,0.0936547,0.73614406,222.8844,09/07.0/2015,2000,g 15.0,4.0
# From MPC 75710
P/2008 Y2 (Gibbs),e,7.2879,330.8629,162.3386,3.581078,0.1454399,0.54499645,351.2755,09/07.0/2015,2000,g 16.0,4.0
# From MPC 75710
P/2008 Y3 (McNaught),e,38.8236,262.8537,238.3076,8.030365,0.0433113,0.44839100,105.1260,09/07.0/2015,2000,g  8.5,4.0
# From MPC 88693
P/2008 Y12 (SOHO),e,23.5809,309.8435,144.3246,3.076479,0.1826514,0.97813146,0.0000,05/17.8833/2014,2000,g  9.0,4.0
# From MPC 75710
P/2009 B1 (Boattini),e,22.2283,297.0656,129.1805,6.722724,0.0565440,0.63631760,136.0442,09/07.0/2015,2000,g 13.0,4.0
# From MPC 82315
C/2009 B2 (LINEAR),e,156.9353,18.7337,192.4276,40.34699,0.0038458,0.94199338,9.1457,09/07.0/2015,2000,g 12.5,4.0
# From MPC 72850
C/2009 E1 (Itagaki),e,127.5390,106.0019,48.9450,40.38233,0.0038408,0.98523571,0.0000,04/09.6917/2009,2000,g 11.5,4.0
# From MPC 82315
C/2009 F1 (Larson),e,171.4009,357.9600,219.8331,94.99102,0.0010646,0.98051342,0.0000,06/23.8120/2009,2000,g 15.0,4.0
# From MPC 80256
C/2009 F2 (McNaught),e,59.3417,213.9554,336.2838,342.3250,0.0001556,0.98285544,0.0000,11/13.6166/2009,2000,g  6.0,4.0
# From MPC 95208
C/2009 F4 (McNaught),e,79.3936,53.5621,260.3922,5658,0.0000023,0.99903581,0.0000,12/31.5220/2011,2000,g  3.0,4.0
# From MPC 66204
C/2009 F5 (McNaught),e,84.9593,218.8801,297.1987,78.47721,0.0014177,0.97153500,0.0000,11/05.4037/2008,2000,g 10.0,4.0
# From MPC 72850
C/2009 F6 (Yi-SWAN),e,85.7292,278.6436,129.9796,508.1839,0.0000860,0.99746432,0.0000,05/05.8185/2009,2000,g  6.0,4.0
# From MPC 66466
C/2009 G1 (STEREO),e,108.1976,120.7705,175.3359,412.7405,0.0001175,0.99728319,0.0000,04/15.3957/2009,2000,g  9.0,4.0
# From MPC 67147
P/2009 K1 (Gibbs),e,5.7438,172.7718,27.4497,3.690487,0.1390204,0.63699690,315.3154,09/07.0/2015,2000,g 17.0,4.0
# From MPC 82315
C/2009 K2 (Catalina),e,66.8250,123.8406,147.5008,845.7256,0.0000401,0.99617829,0.0000,02/07.3855/2010,2000,g 10.0,4.0
# From MPC 66205
C/2009 K3 (Beshore),p,01/09.266/2011,146.680,251.413,3.90156,0.032,2000,8.5,4.0
# From MPC 66703
C/2009 K4 (Gibbs),e,34.8331,29.8635,127.5533,42.05859,0.0036135,0.96333794,8.1991,09/07.0/2015,2000,g 13.0,4.0
# From MPC 82315
C/2009 K5 (McNaught),e,104.0316,257.9337,66.1691,1694,0.0000141,0.99915743,0.0000,04/27.7804/2010,2000,g  7.5,4.0
# From MPC 69905
C/2009 O2 (Catalina),e,107.9814,310.0750,133.4992,251.6988,0.0002468,0.99720424,0.0000,03/23.4860/2010,2000,g 11.0,4.0
# From MPC 75710
